*******************************************************************************
Ephemeris / WWW_USER Mon Mar 24 11:26:04 2025 Pasadena, USA      / Horizons    
*******************************************************************************
Target body name: (2017 UX51)                     {source: JPL#22}
Center body name: Earth (399)                     {source: DE441}
Center-site name: Mauna Kea
*******************************************************************************
Start time      : A.D. 2018-Aug-04 05:07:00.0000 UT      
Stop  time      : A.D. 2018-Aug-04 15:49:00.0000 UT      
Step-size       : 1 minutes
*******************************************************************************
Target pole/equ : undefined
Target radii    : undefined                                                    
Center geodetic : 204.5278, 19.8260847, 4.21024   {E-lon(deg),Lat(deg),Alt(km)}
Center cylindric: 204.5278, 6006.35451, 2151.0229 {E-lon(deg),Dxy(km),Dz(km)}
Center pole/equ : ITRF93                          {East-longitude positive}
Center radii    : 6378.137, 6378.137, 6356.752 km {Equator_a, b, pole_c}       
Target primary  : Sun
Vis. interferer : MOON (R_eq= 1737.400) km        {source: DE441}
Rel. light bend : Sun                             {source: DE441}
Rel. lght bnd GM: 1.3271E+11 km^3/s^2                                          
Small-body perts: Yes                             {source: SB441-N16}
Atmos refraction: NO (AIRLESS)
RA format       : HMS
Time format     : CAL 
Calendar mode   : Mixed Julian/Gregorian
RTS-only print  : NO       
EOP file        : eop.250321.p250617                                           
EOP coverage    : DATA-BASED 1962-JAN-20 TO 2025-MAR-21. PREDICTS-> 2025-JUN-16
Units conversion: 1 au= 149597870.700 km, c= 299792.458 km/s, 1 day= 86400.0 s 
Table cut-offs 1: Elevation (-90.0deg=NO ),Airmass (>38.000=NO), Daylight (YES)
Table cut-offs 2: Solar elongation (  0.0,180.0=NO ),Local Hour Angle( 0.0=NO )
Table cut-offs 3: RA/DEC angular rate (     0.0=NO )                           
*******************************************************************************
Initial IAU76/J2000 heliocentric ecliptic osculating elements (au, days, deg.):
  EPOCH=  2458433.5 ! 2018-Nov-11.00 (TDB)         Residual RMS= .12444        
   EC= .7474905367293002   QR= 7.612253692784782   TP= 2459819.8104231078      
   OM= 217.7952286585891   W=  255.0338939179157   IN= 90.52400691057457       
  Equivalent ICRF heliocentric cartesian coordinates (au, au/d):
   X= 8.209785034050050E+00  Y= 6.297741083246843E+00  Z= 1.446459094674425E+00
  VX=-3.080259200599625E-03 VY=-2.498125597102637E-05 VZ=-6.110805734701701E-03
Asteroid physical parameters (km, seconds, rotational period in hours):        
   GM= n.a.                RAD= n.a.               ROTPER= n.a.                
   H= 11.                  G= .150                 B-V= n.a.                   
                           ALBEDO= n.a.            STYP= n.a.                  
*******************************************************************************
 Date__(UT)__HR:MN     R.A._________(ICRF)_________DEC
******************************************************
$$SOE
 2018-Aug-04 05:07 C   02 46 59.651875 +12 37 19.69484
 2018-Aug-04 05:08 C   02 46 59.654502 +12 37 19.61103
 2018-Aug-04 05:09 C   02 46 59.657128 +12 37 19.52723
 2018-Aug-04 05:10 C   02 46 59.659754 +12 37 19.44344
 2018-Aug-04 05:11 C   02 46 59.662379 +12 37 19.35964
 2018-Aug-04 05:12 C   02 46 59.665004 +12 37 19.27585
 2018-Aug-04 05:13 C   02 46 59.667628 +12 37 19.19206
 2018-Aug-04 05:14 C   02 46 59.670252 +12 37 19.10827
 2018-Aug-04 05:15 C   02 46 59.672876 +12 37 19.02448
 2018-Aug-04 05:16 C   02 46 59.675499 +12 37 18.94070
 2018-Aug-04 05:17 C   02 46 59.678122 +12 37 18.85692
 2018-Aug-04 05:18 C   02 46 59.680745 +12 37 18.77314
 2018-Aug-04 05:19 C   02 46 59.683367 +12 37 18.68936
 2018-Aug-04 05:20 C   02 46 59.685988 +12 37 18.60558
 2018-Aug-04 05:21 N   02 46 59.688609 +12 37 18.52181
 2018-Aug-04 05:22 N   02 46 59.691230 +12 37 18.43804
 2018-Aug-04 05:23 N   02 46 59.693850 +12 37 18.35427
 2018-Aug-04 05:24 N   02 46 59.696470 +12 37 18.27050
 2018-Aug-04 05:25 N   02 46 59.699090 +12 37 18.18673
 2018-Aug-04 05:26 N   02 46 59.701709 +12 37 18.10297
 2018-Aug-04 05:27 N   02 46 59.704327 +12 37 18.01921
 2018-Aug-04 05:28 N   02 46 59.706945 +12 37 17.93545
 2018-Aug-04 05:29 N   02 46 59.709563 +12 37 17.85169
 2018-Aug-04 05:30 N   02 46 59.712180 +12 37 17.76794
 2018-Aug-04 05:31 N   02 46 59.714796 +12 37 17.68418
 2018-Aug-04 05:32 N   02 46 59.717412 +12 37 17.60043
 2018-Aug-04 05:33 N   02 46 59.720028 +12 37 17.51668
 2018-Aug-04 05:34 N   02 46 59.722643 +12 37 17.43294
 2018-Aug-04 05:35 N   02 46 59.725258 +12 37 17.34919
 2018-Aug-04 05:36 N   02 46 59.727872 +12 37 17.26545
 2018-Aug-04 05:37 N   02 46 59.730486 +12 37 17.18171
 2018-Aug-04 05:38 N   02 46 59.733099 +12 37 17.09797
 2018-Aug-04 05:39 N   02 46 59.735712 +12 37 17.01423
 2018-Aug-04 05:40 N   02 46 59.738324 +12 37 16.93050
 2018-Aug-04 05:41 N   02 46 59.740935 +12 37 16.84676
 2018-Aug-04 05:42 N   02 46 59.743546 +12 37 16.76303
 2018-Aug-04 05:43 N   02 46 59.746157 +12 37 16.67930
 2018-Aug-04 05:44 N   02 46 59.748767 +12 37 16.59558
 2018-Aug-04 05:45 N   02 46 59.751377 +12 37 16.51185
 2018-Aug-04 05:46 N   02 46 59.753986 +12 37 16.42813
 2018-Aug-04 05:47 N   02 46 59.756594 +12 37 16.34441
 2018-Aug-04 05:48 N   02 46 59.759202 +12 37 16.26069
 2018-Aug-04 05:49 A   02 46 59.761809 +12 37 16.17697
 2018-Aug-04 05:50 A   02 46 59.764416 +12 37 16.09326
 2018-Aug-04 05:51 A   02 46 59.767022 +12 37 16.00955
 2018-Aug-04 05:52 A   02 46 59.769628 +12 37 15.92584
 2018-Aug-04 05:53 A   02 46 59.772233 +12 37 15.84213
 2018-Aug-04 05:54 A   02 46 59.774838 +12 37 15.75842
 2018-Aug-04 05:55 A   02 46 59.777442 +12 37 15.67472
 2018-Aug-04 05:56 A   02 46 59.780045 +12 37 15.59101
 2018-Aug-04 05:57 A   02 46 59.782648 +12 37 15.50731
 2018-Aug-04 05:58 A   02 46 59.785250 +12 37 15.42361
 2018-Aug-04 05:59 A   02 46 59.787852 +12 37 15.33991
 2018-Aug-04 06:00 A   02 46 59.790453 +12 37 15.25622
 2018-Aug-04 06:01 A   02 46 59.793053 +12 37 15.17253
 2018-Aug-04 06:02 A   02 46 59.795653 +12 37 15.08883
 2018-Aug-04 06:03 A   02 46 59.798253 +12 37 15.00514
 2018-Aug-04 06:04 A   02 46 59.800851 +12 37 14.92146
 2018-Aug-04 06:05 A   02 46 59.803449 +12 37 14.83777
 2018-Aug-04 06:06 A   02 46 59.806047 +12 37 14.75409
 2018-Aug-04 06:07 A   02 46 59.808643 +12 37 14.67040
 2018-Aug-04 06:08 A   02 46 59.811240 +12 37 14.58672
 2018-Aug-04 06:09 A   02 46 59.813835 +12 37 14.50305
 2018-Aug-04 06:10 A   02 46 59.816430 +12 37 14.41937
 2018-Aug-04 06:11 A   02 46 59.819024 +12 37 14.33569
 2018-Aug-04 06:12 A   02 46 59.821618 +12 37 14.25202
 2018-Aug-04 06:13 A   02 46 59.824211 +12 37 14.16835
 2018-Aug-04 06:14 A   02 46 59.826803 +12 37 14.08468
 2018-Aug-04 06:15 A   02 46 59.829395 +12 37 14.00101
 2018-Aug-04 06:16 A   02 46 59.831986 +12 37 13.91735
 2018-Aug-04 06:17     02 46 59.834576 +12 37 13.83368
 2018-Aug-04 06:18     02 46 59.837166 +12 37 13.75002
 2018-Aug-04 06:19     02 46 59.839755 +12 37 13.66636
 2018-Aug-04 06:20     02 46 59.842344 +12 37 13.58270
 2018-Aug-04 06:21     02 46 59.844931 +12 37 13.49905
 2018-Aug-04 06:22     02 46 59.847518 +12 37 13.41539
 2018-Aug-04 06:23     02 46 59.850105 +12 37 13.33174
 2018-Aug-04 06:24     02 46 59.852690 +12 37 13.24809
 2018-Aug-04 06:25     02 46 59.855275 +12 37 13.16444
 2018-Aug-04 06:26     02 46 59.857859 +12 37 13.08079
 2018-Aug-04 06:27     02 46 59.860443 +12 37 12.99714
 2018-Aug-04 06:28     02 46 59.863026 +12 37 12.91350
 2018-Aug-04 06:29     02 46 59.865608 +12 37 12.82986
 2018-Aug-04 06:30     02 46 59.868190 +12 37 12.74621
 2018-Aug-04 06:31     02 46 59.870770 +12 37 12.66258
 2018-Aug-04 06:32     02 46 59.873350 +12 37 12.57894
 2018-Aug-04 06:33     02 46 59.875930 +12 37 12.49530
 2018-Aug-04 06:34     02 46 59.878508 +12 37 12.41167
 2018-Aug-04 06:35     02 46 59.881086 +12 37 12.32803
 2018-Aug-04 06:36     02 46 59.883663 +12 37 12.24440
 2018-Aug-04 06:37     02 46 59.886240 +12 37 12.16077
 2018-Aug-04 06:38     02 46 59.888815 +12 37 12.07715
 2018-Aug-04 06:39     02 46 59.891390 +12 37 11.99352
 2018-Aug-04 06:40     02 46 59.893964 +12 37 11.90990
 2018-Aug-04 06:41     02 46 59.896538 +12 37 11.82627
 2018-Aug-04 06:42     02 46 59.899110 +12 37 11.74265
 2018-Aug-04 06:43     02 46 59.901682 +12 37 11.65903
 2018-Aug-04 06:44     02 46 59.904253 +12 37 11.57541
 2018-Aug-04 06:45     02 46 59.906824 +12 37 11.49180
 2018-Aug-04 06:46     02 46 59.909393 +12 37 11.40818
 2018-Aug-04 06:47     02 46 59.911962 +12 37 11.32457
 2018-Aug-04 06:48     02 46 59.914530 +12 37 11.24096
 2018-Aug-04 06:49     02 46 59.917098 +12 37 11.15735
 2018-Aug-04 06:50     02 46 59.919664 +12 37 11.07374
 2018-Aug-04 06:51     02 46 59.922230 +12 37 10.99013
 2018-Aug-04 06:52     02 46 59.924795 +12 37 10.90653
 2018-Aug-04 06:53     02 46 59.927359 +12 37 10.82292
 2018-Aug-04 06:54     02 46 59.929922 +12 37 10.73932
 2018-Aug-04 06:55     02 46 59.932485 +12 37 10.65572
 2018-Aug-04 06:56     02 46 59.935047 +12 37 10.57212
 2018-Aug-04 06:57     02 46 59.937608 +12 37 10.48852
 2018-Aug-04 06:58     02 46 59.940168 +12 37 10.40492
 2018-Aug-04 06:59     02 46 59.942727 +12 37 10.32133
 2018-Aug-04 07:00     02 46 59.945286 +12 37 10.23774
 2018-Aug-04 07:01     02 46 59.947843 +12 37 10.15414
 2018-Aug-04 07:02     02 46 59.950400 +12 37 10.07055
 2018-Aug-04 07:03     02 46 59.952956 +12 37 09.98696
 2018-Aug-04 07:04     02 46 59.955511 +12 37 09.90337
 2018-Aug-04 07:05     02 46 59.958066 +12 37 09.81979
 2018-Aug-04 07:06     02 46 59.960619 +12 37 09.73620
 2018-Aug-04 07:07     02 46 59.963172 +12 37 09.65262
 2018-Aug-04 07:08     02 46 59.965724 +12 37 09.56904
 2018-Aug-04 07:09     02 46 59.968275 +12 37 09.48546
